CCSDS_OEM_VERS = 1.0
CREATION_DATE  = 2017-05-11T10:56:49
ORIGINATOR     = GMAT USER

META_START
OBJECT_NAME          = MOPSSat_alt_35785_km_RAAN_0_022
OBJECT_ID            = SatId
CENTER_NAME          = Earth
REF_FRAME            = EME2000
TIME_SYSTEM          = UTC
START_TIME           = 2017-01-01T00:00:00.000
USEABLE_START_TIME   = 2017-01-01T00:00:00.000
USEABLE_STOP_TIME    = 2017-01-02T00:00:00.000
STOP_TIME            = 2017-01-02T00:00:00.000
INTERPOLATION        = Lagrange
INTERPOLATION_DEGREE = 7 
META_STOP


                                                                                   

2017-01-01T19:42:30.000   1.877977929626888e+04  -3.774951623283426e+04  -3.294895842657207e+02   2.752848881231064e+00   1.369496901022426e+00   1.183117751895681e-02
2017-01-01T19:42:40.000   1.880730278944785e+04  -3.773581122836451e+04  -3.293711851019576e+02   2.751849563128448e+00   1.371503897768612e+00   1.184865441011666e-02
2017-01-01T19:42:50.000   1.883481628188157e+04  -3.772208615769528e+04  -3.292526112018791e+02   2.750848781616525e+00   1.373510165265140e+00   1.186612499230790e-02
2017-01-01T19:43:00.000   1.886231975915462e+04  -3.770834102801676e+04  -3.291338626276918e+02   2.749846537219460e+00   1.375515702460736e+00   1.188358925639924e-02
2017-01-01T19:43:10.000   1.888981320693447e+04  -3.769457584649164e+04  -3.290149394413644e+02   2.748842830459407e+00   1.377520508310169e+00   1.190104719331204e-02
2017-01-01T19:43:20.000   1.891729661061407e+04  -3.768079062043055e+04  -3.288958417061446e+02   2.747837661869309e+00   1.379524581748188e+00   1.191849879379332e-02
2017-01-01T19:43:30.000   1.894476995557759e+04  -3.766698535716252e+04  -3.287765694854392e+02   2.746831031983453e+00   1.381527921708903e+00   1.193594404858450e-02
2017-01-01T19:43:40.000   1.897223322719988e+04  -3.765316006403390e+04  -3.286571228428054e+02   2.745822941337389e+00   1.383530527125745e+00   1.195338294842111e-02
2017-01-01T19:43:50.000   1.899968641058377e+04  -3.763931474854396e+04  -3.285375018431223e+02   2.744813390477816e+00   1.385532396912307e+00   1.197081548386589e-02
2017-01-01T19:44:00.000   1.902712949091444e+04  -3.762544941816326e+04  -3.284177065510212e+02   2.743802379949341e+00   1.387533529988190e+00   1.198824164553391e-02
2017-01-01T19:44:10.000   1.905456245331973e+04  -3.761156408040491e+04  -3.282977370315012e+02   2.742789910299678e+00   1.389533925268809e+00   1.200566142400376e-02
2017-01-01T19:44:20.000   1.908198528348916e+04  -3.759765874251130e+04  -3.281775933472234e+02   2.741775982056791e+00   1.391533581710543e+00   1.202307481021075e-02
2017-01-01T19:44:30.000   1.910939796705483e+04  -3.758373341176708e+04  -3.280572755612147e+02   2.740760595751739e+00   1.393532498265577e+00   1.204048179505366e-02
2017-01-01T19:44:40.000   1.913680048973150e+04  -3.756978809542887e+04  -3.279367837362597e+02   2.739743751913527e+00   1.395530673892128e+00   1.205788236948378e-02
2017-01-01T19:44:50.000   1.916419283696041e+04  -3.755582280090297e+04  -3.278161179364372e+02   2.738725451082081e+00   1.397528107528463e+00   1.207527652427870e-02
2017-01-01T19:45:00.000   1.919157499417411e+04  -3.754183753561423e+04  -3.276952782259862e+02   2.737705693798675e+00   1.399524798112221e+00   1.209266425021049e-02
2017-01-01T19:45:10.000   1.921894694679598e+04  -3.752783230700480e+04  -3.275742646692963e+02   2.736684480605851e+00   1.401520744580369e+00   1.211004553804538e-02
2017-01-01T19:45:20.000   1.924630867997836e+04  -3.751380712267161e+04  -3.274530773320941e+02   2.735661812057427e+00   1.403515945850109e+00   1.212742037837746e-02
2017-01-01T19:45:30.000   1.927366017895579e+04  -3.749976199018225e+04  -3.273317162798545e+02   2.734637688705097e+00   1.405510400844638e+00   1.214478876185303e-02
2017-01-01T19:45:40.000   1.930100142890305e+04  -3.748569691714869e+04  -3.272101815784353e+02   2.733612111103779e+00   1.407504108482797e+00   1.216215067908039e-02
2017-01-01T19:45:50.000   1.932833241556253e+04  -3.747161191090443e+04  -3.270884732912892e+02   2.732585079788092e+00   1.409497067724812e+00   1.217950612102833e-02
2017-01-01T19:46:00.000   1.935565312461520e+04  -3.745750697882788e+04  -3.269665914822570e+02   2.731556595295930e+00   1.411489277526435e+00   1.219685507862658e-02
2017-01-01T19:46:10.000   1.938296354184308e+04  -3.744338212825909e+04  -3.268445362148487e+02   2.730526658162387e+00   1.413480736850784e+00   1.221419754286905e-02
2017-01-01T19:46:20.000   1.941026365269206e+04  -3.742923736672302e+04  -3.267223075541726e+02   2.729495268936046e+00   1.415471444636466e+00   1.223153350453617e-02
2017-01-01T19:46:30.000   1.943755344263283e+04  -3.741507270174568e+04  -3.265999055653461e+02   2.728462428165558e+00   1.417461399823896e+00   1.224886295442413e-02
2017-01-01T19:46:40.000   1.946483289707770e+04  -3.740088814089634e+04  -3.264773303138618e+02   2.727428136402739e+00   1.419450601349235e+00   1.226618588329203e-02
2017-01-01T19:46:50.000   1.949210200141344e+04  -3.738668369177244e+04  -3.263545818654554e+02   2.726392394201454e+00   1.421439048146778e+00   1.228350228188272e-02
2017-01-01T19:47:00.000   1.951936074101597e+04  -3.737245936199038e+04  -3.262316602860274e+02   2.725355202116950e+00   1.423426739150028e+00   1.230081214093218e-02
2017-01-01T19:47:10.000   1.954660910128298e+04  -3.735821515916856e+04  -3.261085656414957e+02   2.724316560704626e+00   1.425413673294081e+00   1.231811545119019e-02
2017-01-01T19:47:20.000   1.957384706764982e+04  -3.734395109092058e+04  -3.259852979977374e+02   2.723276470519521e+00   1.427399849516771e+00   1.233541220343044e-02
2017-01-01T19:47:30.000   1.960107462562084e+04  -3.732966716483698e+04  -3.258618574204311e+02   2.722234932115007e+00   1.429385266760969e+00   1.235270238847039e-02
2017-01-01T19:47:40.000   1.962829176068694e+04  -3.731536338852930e+04  -3.257382439754368e+02   2.721191946045975e+00   1.431369923968566e+00   1.236998599711899e-02
2017-01-01T19:47:50.000   1.965549845868326e+04  -3.730103976943955e+04  -3.256144577271502e+02   2.720147512854961e+00   1.433353820106549e+00   1.238726302040377e-02
2017-01-01T19:48:00.000   1.968269470535555e+04  -3.728669631507057e+04  -3.254904987404931e+02   2.719101633088937e+00   1.435336954135390e+00   1.240453344929548e-02
2017-01-01T19:48:10.000   1.970988048652418e+04  -3.727233303289922e+04  -3.253663670801631e+02   2.718054307292979e+00   1.437319325021002e+00   1.242179727481225e-02
2017-01-01T19:48:20.000   1.973705578744843e+04  -3.725794993071200e+04  -3.252420628135342e+02   2.717005536034741e+00   1.439300931688384e+00   1.243905448761588e-02
2017-01-01T19:48:30.000   1.976422059346232e+04  -3.724354701626953e+04  -3.251175860077577e+02   2.715955319879995e+00   1.441281773067984e+00   1.245630507841563e-02
2017-01-01T19:48:40.000   1.979137488981038e+04  -3.722912429739303e+04  -3.249929367305085e+02   2.714903659398927e+00   1.443261848083724e+00   1.247354903786388e-02
2017-01-01T19:48:50.000   1.981851866208242e+04  -3.721468178173617e+04  -3.248681150480141e+02   2.713850555149508e+00   1.445241155684703e+00   1.249078635683233e-02
2017-01-01T19:49:00.000   1.984565189585459e+04  -3.720021947697296e+04  -3.247431210266785e+02   2.712796007691193e+00   1.447219694819028e+00   1.250801702618396e-02
2017-01-01T19:49:10.000   1.987277457677222e+04  -3.718573739075445e+04  -3.246179547327077e+02   2.711740017581762e+00   1.449197464439842e+00   1.252524103682565e-02
2017-01-01T19:49:20.000   1.989988669051700e+04  -3.717123553072437e+04  -3.244926162322448e+02   2.710682585378464e+00   1.451174463502948e+00   1.254245837968741e-02
2017-01-01T19:49:30.000   1.992698822279259e+04  -3.715671390452842e+04  -3.243671055914498e+02   2.709623711638687e+00   1.453150690965745e+00   1.255966904571314e-02
2017-01-01T19:49:40.000   1.995407915929202e+04  -3.714217251983146e+04  -3.242414228766500e+02   2.708563396921225e+00   1.455126145784861e+00   1.257687302583999e-02
2017-01-01T19:49:50.000   1.998115948568206e+04  -3.712761138432470e+04  -3.241155681543996e+02   2.707501641786787e+00   1.457100826915005e+00   1.259407031098845e-02
2017-01-01T19:50:00.000   2.000822918757198e+04  -3.711303050574411e+04  -3.239895414916404e+02   2.706438446799345e+00   1.459074733306696e+00   1.261126089204245e-02
2017-01-01T19:50:10.000   2.003528825059553e+04  -3.709842989182554e+04  -3.238633429553144e+02   2.705373812522869e+00   1.461047863912236e+00   1.262844475990149e-02
2017-01-01T19:50:20.000   2.006233666005547e+04  -3.708380955049909e+04  -3.237369726140423e+02   2.704307739535489e+00   1.463020217659793e+00   1.264562190525481e-02
2017-01-01T19:50:30.000   2.008937440135457e+04  -3.706916948965402e+04  -3.236104305360927e+02   2.703240228412362e+00   1.464991793484826e+00   1.266279231885521e-02
2017-01-01T19:50:40.000   2.011640145983524e+04  -3.705450971722603e+04  -3.234837167901354e+02   2.702171279732022e+00   1.466962590318392e+00   1.267995599141709e-02
2017-01-01T19:50:50.000   2.014341782140133e+04  -3.703983024086004e+04  -3.233568314423283e+02   2.701100894051815e+00   1.468932607132491e+00   1.269711291401142e-02
2017-01-01T19:51:00.000   2.017042347189781e+04  -3.702513106824647e+04  -3.232297745592221e+02   2.700029071932391e+00   1.470901842894825e+00   1.271426307767175e-02
2017-01-01T19:51:10.000   2.019741839725153e+04  -3.701041220704517e+04  -3.231025462071040e+02   2.698955813932181e+00   1.472870296579070e+00   1.273140647348362e-02
2017-01-01T19:51:20.000   2.022440258312014e+04  -3.699567366507353e+04  -3.229751464536236e+02   2.697881120621098e+00   1.474837967139269e+00   1.274854309236161e-02
2017-01-01T19:51:30.000   2.025137601515317e+04  -3.698091545016759e+04  -3.228475753665916e+02   2.696804992570419e+00   1.476804853528876e+00   1.276567292521512e-02
